[{"OBJECT_NAME":"COSMOS 2414","OBJECT_ID":"2005-002A","EPOCH":"2026-03-09T14:50:05.809056","MEAN_MOTION":13.87915528,"ECCENTRICITY":0.0038721,"INCLINATION":82.9481,"RA_OF_ASC_NODE":118.9723,"ARG_OF_PERICENTER":252.5669,"MEAN_ANOMALY":107.1259,"EPHEMERIS_TYPE":0,"CLASSIFICATION_TYPE":"U","NORAD_CAT_ID":28521,"ELEMENT_SET_NO":999,"REV_AT_EPOCH":7000,"BSTAR":5.6357e-5,"MEAN_MOTION_DOT":8.3e-7,"MEAN_MOTION_DDOT":0},{"OBJECT_NAME":"THOR ABLESTAR DEB","OBJECT_ID":"1961-015GZ","EPOCH":"2026-03-09T22:21:37.506240","MEAN_MOTION":13.59537467,"ECCENTRICITY":0.02061167,"INCLINATION":65.8715,"RA_OF_ASC_NODE":269.4748,"ARG_OF_PERICENTER":272.8274,"MEAN_ANOMALY":200.5049,"EPHEMERIS_TYPE":0,"CLASSIFICATION_TYPE":"U","NORAD_CAT_ID":648,"ELEMENT_SET_NO":999,"REV_AT_EPOCH":18548,"BSTAR":0.00052829081,"MEAN_MOTION_DOT":3.73e-6,"MEAN_MOTION_DDOT":0}]
